[{"OBJECT_NAME":"STARLINK-37100","OBJECT_ID":"2026-053Z","EPOCH":"2026-04-15T06:00:02.000160","MEAN_MOTION":15.49216259,"ECCENTRICITY":0.00022427,"INCLINATION":97.2852,"RA_OF_ASC_NODE":341.2718,"ARG_OF_PERICENTER":97.0347,"MEAN_ANOMALY":178.9697,"EPHEMERIS_TYPE":0,"CLASSIFICATION_TYPE":"U","NORAD_CAT_ID":68230,"ELEMENT_SET_NO":999,"REV_AT_EPOCH":589,"BSTAR":-0.0005601518,"MEAN_MOTION_DOT":-0.00030469,"MEAN_MOTION_DDOT":0},{"OBJECT_NAME":"STARLINK-37104","OBJECT_ID":"2026-053AA","EPOCH":"2026-04-15T06:00:02.000160","MEAN_MOTION":15.49219497,"ECCENTRICITY":0.00021941,"INCLINATION":97.299,"RA_OF_ASC_NODE":341.2757,"ARG_OF_PERICENTER":103.8729,"MEAN_ANOMALY":175.6749,"EPHEMERIS_TYPE":0,"CLASSIFICATION_TYPE":"U","NORAD_CAT_ID":68231,"ELEMENT_SET_NO":999,"REV_AT_EPOCH":589,"BSTAR":-0.00087715651,"MEAN_MOTION_DOT":-0.00047564,"MEAN_MOTION_DDOT":0},{"OBJECT_NAME":"STARLINK-37027","OBJECT_ID":"2026-054A","EPOCH":"2026-04-15T07:02:05.263872","MEAN_MOTION":15.75238032,"ECCENTRICITY":0.00012153,"INCLINATION":53.1586,"RA_OF_ASC_NODE":129.9356,"ARG_OF_PERICENTER":36.0066,"MEAN_ANOMALY":324.1036,"EPHEMERIS_TYPE":0,"CLASSIFICATION_TYPE":"U","NORAD_CAT_ID":68232,"ELEMENT_SET_NO":999,"REV_AT_EPOCH":455,"BSTAR":0.0010217575,"MEAN_MOTION_DOT":0.00158953,"MEAN_MOTION_DDOT":0},{"OBJECT_NAME":"STARLINK-37132","OBJECT_ID":"2026-054B","EPOCH":"2026-04-15T06:00:02.000160","MEAN_MOTION":15.75280426,"ECCENTRICITY":0.0001138,"INCLINATION":53.1584,"RA_OF_ASC_NODE":129.5692,"ARG_OF_PERICENTER":82.1709,"MEAN_ANOMALY":316.6987,"EPHEMERIS_TYPE":0,"CLASSIFICATION_TYPE":"U","NORAD_CAT_ID":68233,"ELEMENT_SET_NO":999,"REV_AT_EPOCH":586,"BSTAR":-0.00073119635,"MEAN_MOTION_DOT":-0.0011146,"MEAN_MOTION_DDOT":0},{"OBJECT_NAME":"STARLINK-37101","OBJECT_ID":"2026-054C","EPOCH":"2026-04-15T06:49:29.292384","MEAN_MOTION":15.75250457,"ECCENTRICITY":0.0001071,"INCLINATION":53.1571,"RA_OF_ASC_NODE":129.875,"ARG_OF_PERICENTER":56.1786,"MEAN_ANOMALY":303.9337,"EPHEMERIS_TYPE":0,"CLASSIFICATION_TYPE":"U","NORAD_CAT_ID":68234,"ELEMENT_SET_NO":999,"REV_AT_EPOCH":455,"BSTAR":0.00077540348,"MEAN_MOTION_DOT":0.00119979,"MEAN_MOTION_DDOT":0},{"OBJECT_NAME":"STARLINK-36963","OBJECT_ID":"2026-054D","EPOCH":"2026-04-15T06:56:01.836096","MEAN_MOTION":15.75236826,"ECCENTRICITY":0.00028908,"INCLINATION":53.1582,"RA_OF_ASC_NODE":129.9068,"ARG_OF_PERICENTER":13.7878,"MEAN_ANOMALY":346.322,"EPHEMERIS_TYPE":0,"CLASSIFICATION_TYPE":"U","NORAD_CAT_ID":68235,"ELEMENT_SET_NO":999,"REV_AT_EPOCH":455,"BSTAR":0.00097837748,"MEAN_MOTION_DOT":0.00152061,"MEAN_MOTION_DDOT":0},{"OBJECT_NAME":"STARLINK-37127","OBJECT_ID":"2026-054E","EPOCH":"2026-04-15T07:09:05.699232","MEAN_MOTION":15.75282462,"ECCENTRICITY":0.00015491,"INCLINATION":53.1593,"RA_OF_ASC_NODE":129.9655,"ARG_OF_PERICENTER":139.1833,"MEAN_ANOMALY":220.9303,"EPHEMERIS_TYPE":0,"CLASSIFICATION_TYPE":"U","NORAD_CAT_ID":68236,"ELEMENT_SET_NO":999,"REV_AT_EPOCH":455,"BSTAR":0.0010653885,"MEAN_MOTION_DOT":0.00166235,"MEAN_MOTION_DDOT":0},{"OBJECT_NAME":"STARLINK-37095","OBJECT_ID":"2026-054F","EPOCH":"2026-04-15T05:31:11.373600","MEAN_MOTION":15.74770407,"ECCENTRICITY":0.0004327,"INCLINATION":53.1589,"RA_OF_ASC_NODE":130.2519,"ARG_OF_PERICENTER":131.7989,"MEAN_ANOMALY":228.3401,"EPHEMERIS_TYPE":0,"CLASSIFICATION_TYPE":"U","NORAD_CAT_ID":68237,"ELEMENT_SET_NO":999,"REV_AT_EPOCH":454,"BSTAR":0.0009236799,"MEAN_MOTION_DOT":0.00140475,"MEAN_MOTION_DDOT":0},{"OBJECT_NAME":"STARLINK-37097","OBJECT_ID":"2026-054G","EPOCH":"2026-04-15T06:09:48.026304","MEAN_MOTION":15.75364081,"ECCENTRICITY":9.411e-5,"INCLINATION":53.1587,"RA_OF_ASC_NODE":129.6929,"ARG_OF_PERICENTER":131.3367,"MEAN_ANOMALY":228.7734,"EPHEMERIS_TYPE":0,"CLASSIFICATION_TYPE":"U","NORAD_CAT_ID":68238,"ELEMENT_SET_NO":999,"REV_AT_EPOCH":455,"BSTAR":0.0011740034,"MEAN_MOTION_DOT":0.00184299,"MEAN_MOTION_DDOT":0},{"OBJECT_NAME":"STARLINK-37096","OBJECT_ID":"2026-054H","EPOCH":"2026-04-15T06:22:52.438944","MEAN_MOTION":15.75245979,"ECCENTRICITY":0.00011227,"INCLINATION":53.1591,"RA_OF_ASC_NODE":129.7521,"ARG_OF_PERICENTER":78.0789,"MEAN_ANOMALY":282.0357,"EPHEMERIS_TYPE":0,"CLASSIFICATION_TYPE":"U","NORAD_CAT_ID":68239,"ELEMENT_SET_NO":999,"REV_AT_EPOCH":455,"BSTAR":0.00097235848,"MEAN_MOTION_DOT":0.00151148,"MEAN_MOTION_DDOT":0},{"OBJECT_NAME":"STARLINK-37092","OBJECT_ID":"2026-054J","EPOCH":"2026-04-14T13:50:58.176672","MEAN_MOTION":15.75420452,"ECCENTRICITY":0.0001964,"INCLINATION":53.1559,"RA_OF_ASC_NODE":133.2806,"ARG_OF_PERICENTER":100.4521,"MEAN_ANOMALY":259.6721,"EPHEMERIS_TYPE":0,"CLASSIFICATION_TYPE":"U","NORAD_CAT_ID":68240,"ELEMENT_SET_NO":999,"REV_AT_EPOCH":444,"BSTAR":0.0011361,"MEAN_MOTION_DOT":0.00178653,"MEAN_MOTION_DDOT":0},{"OBJECT_NAME":"STARLINK-37094","OBJECT_ID":"2026-054K","EPOCH":"2026-04-15T06:00:02.000160","MEAN_MOTION":15.67914414,"ECCENTRICITY":8.825e-5,"INCLINATION":53.1595,"RA_OF_ASC_NODE":129.6102,"ARG_OF_PERICENTER":82.8701,"MEAN_ANOMALY":294.8234,"EPHEMERIS_TYPE":0,"CLASSIFICATION_TYPE":"U","NORAD_CAT_ID":68241,"ELEMENT_SET_NO":999,"REV_AT_EPOCH":578,"BSTAR":-0.019348106,"MEAN_MOTION_DOT":-0.01927566,"MEAN_MOTION_DDOT":0},{"OBJECT_NAME":"STARLINK-36356","OBJECT_ID":"2026-054L","EPOCH":"2026-04-15T06:00:02.000160","MEAN_MOTION":15.71487894,"ECCENTRICITY":0.0001272,"INCLINATION":53.1589,"RA_OF_ASC_NODE":130.0013,"ARG_OF_PERICENTER":77.4466,"MEAN_ANOMALY":109.355,"EPHEMERIS_TYPE":0,"CLASSIFICATION_TYPE":"U","NORAD_CAT_ID":68242,"ELEMENT_SET_NO":999,"REV_AT_EPOCH":582,"BSTAR":-0.01674468,"MEAN_MOTION_DOT":-0.01937,"MEAN_MOTION_DDOT":0},{"OBJECT_NAME":"STARLINK-36345","OBJECT_ID":"2026-054M","EPOCH":"2026-04-15T06:55:33.393216","MEAN_MOTION":15.75239168,"ECCENTRICITY":0.00024866,"INCLINATION":53.1581,"RA_OF_ASC_NODE":129.9025,"ARG_OF_PERICENTER":13.0965,"MEAN_ANOMALY":347.0119,"EPHEMERIS_TYPE":0,"CLASSIFICATION_TYPE":"U","NORAD_CAT_ID":68243,"ELEMENT_SET_NO":999,"REV_AT_EPOCH":455,"BSTAR":0.00092946766,"MEAN_MOTION_DOT":0.00144303,"MEAN_MOTION_DDOT":0},{"OBJECT_NAME":"STARLINK-36310","OBJECT_ID":"2026-054N","EPOCH":"2026-04-15T06:00:02.000160","MEAN_MOTION":15.75285771,"ECCENTRICITY":9.431e-5,"INCLINATION":53.1586,"RA_OF_ASC_NODE":129.4623,"ARG_OF_PERICENTER":97.6421,"MEAN_ANOMALY":352.7377,"EPHEMERIS_TYPE":0,"CLASSIFICATION_TYPE":"U","NORAD_CAT_ID":68244,"ELEMENT_SET_NO":999,"REV_AT_EPOCH":583,"BSTAR":-0.00079577018,"MEAN_MOTION_DOT":-0.00121134,"MEAN_MOTION_DDOT":0},{"OBJECT_NAME":"STARLINK-36247","OBJECT_ID":"2026-054P","EPOCH":"2026-04-15T05:43:11.575488","MEAN_MOTION":15.75310226,"ECCENTRICITY":0.00011955,"INCLINATION":53.1596,"RA_OF_ASC_NODE":129.5679,"ARG_OF_PERICENTER":128.319,"MEAN_ANOMALY":231.7938,"EPHEMERIS_TYPE":0,"CLASSIFICATION_TYPE":"U","NORAD_CAT_ID":68245,"ELEMENT_SET_NO":999,"REV_AT_EPOCH":455,"BSTAR":0.0013687416,"MEAN_MOTION_DOT":0.00215265,"MEAN_MOTION_DDOT":0}]
