STARLINK-37100          
1 68230U 26053Z   26105.25002315 -.00030469  00000+0 -56015-3 0  9990
2 68230  97.2852 341.2718 0002242  97.0347 178.9697 15.49216259  5893
STARLINK-37104          
1 68231U 26053AA  26105.25002315 -.00047564  00000+0 -87716-3 0  9997
2 68231  97.2990 341.2757 0002194 103.8729 175.6749 15.49219497  5895
STARLINK-37027          
1 68232U 26054A   26105.29311648  .00158953  00000+0  10218-2 0  9990
2 68232  53.1586 129.9356 0001215  36.0066 324.1036 15.75238032  4555
STARLINK-37132          
1 68233U 26054B   26105.25002315 -.00111460  00000+0 -73120-3 0  9991
2 68233  53.1584 129.5692 0001138  82.1709 316.6987 15.75280426  5863
STARLINK-37101          
1 68234U 26054C   26105.28436681  .00119979  00000+0  77540-3 0  9993
2 68234  53.1571 129.8750 0001071  56.1786 303.9337 15.75250457  4554
STARLINK-36963          
1 68235U 26054D   26105.28891014  .00152061  00000+0  97838-3 0  9990
2 68235  53.1582 129.9068 0002890  13.7878 346.3220 15.75236826  4557
STARLINK-37127          
1 68236U 26054E   26105.29798263  .00166235  00000+0  10654-2 0  9992
2 68236  53.1593 129.9655 0001549 139.1833 220.9303 15.75282462  4552
STARLINK-37095          
1 68237U 26054F   26105.22999275  .00140475  00000+0  92368-3 0  9993
2 68237  53.1589 130.2519 0004327 131.7989 228.3401 15.74770407  4549
STARLINK-37097          
1 68238U 26054G   26105.25680586  .00184299  00000+0  11740-2 0  9995
2 68238  53.1587 129.6929 0000941 131.3367 228.7734 15.75364081  4551
STARLINK-37096          
1 68239U 26054H   26105.26588471  .00151148  00000+0  97236-3 0  9999
2 68239  53.1591 129.7521 0001122  78.0789 282.0357 15.75245979  4551
STARLINK-37092          
1 68240U 26054J   26104.57706223  .00178653  00000+0  11361-2 0  9995
2 68240  53.1559 133.2806 0001964 100.4521 259.6721 15.75420452  4445
STARLINK-37094          
1 68241U 26054K   26105.25002315 -.01927566  00000+0 -19348-1 0  9993
2 68241  53.1595 129.6102 0000882  82.8701 294.8234 15.67914414  5780
STARLINK-36356          
1 68242U 26054L   26105.25002315 -.01937000  00000+0 -16745-1 0  9996
2 68242  53.1589 130.0013 0001272  77.4466 109.3550 15.71487894  5821
STARLINK-36345          
1 68243U 26054M   26105.28858094  .00144303  00000+0  92947-3 0  9996
2 68243  53.1581 129.9025 0002486  13.0965 347.0119 15.75239168  4556
STARLINK-36310          
1 68244U 26054N   26105.25002315 -.00121134  00000+0 -79577-3 0  9994
2 68244  53.1586 129.4623 0000943  97.6421 352.7377 15.75285771  5834
STARLINK-36247          
1 68245U 26054P   26105.23832842  .00215265  00000+0  13687-2 0  9995
2 68245  53.1596 129.5679 0001195 128.3190 231.7938 15.75310226  4554
